NORAD_CAT_ID,OBJECT_NAME,OBJECT_TYPE,EPOCH,MEAN_MOTION,ECCENTRICITY,INCLINATION,RA_OF_ASC_NODE,ARG_OF_PERICENTER,MEAN_ANOMALY,BSTAR,MEAN_MOTION_DOT,MEAN_MOTION_DDOT,TLE_LINE0,TLE_LINE1,TLE_LINE2,SEMIMAJOR_AXIS,PERIOD,APOGEE,PERIGEE,DECAYED
54758.0,STARLINK-5464,PAYLOAD,2023-04-24 07:14:28,15.08861463,0.0001401,53.2189,74.6823,107.7093,252.4052,8.3869e-05,1.048e-05,0.0,0 STARLINK-5464,1 54758U 22175A   23114.30171839  .00001048  00000-0  83869-4 0  9990,2 54758  53.2189  74.6823 0001401 107.7093 252.4052 15.08861463 17978,6917.815,95.436,540.649,538.711,0.0
54758.0,STARLINK-5464,PAYLOAD,2023-04-25 03:54:29,15.08853309,0.0001162,53.2172,70.8185,96.315,263.7974,0.00027526,4.097e-05,0.0,0 STARLINK-5464,1 54758U 22175A   23115.16284045  .00004097  00000-0  27526-3 0  9993,2 54758  53.2172  70.8185 0001162  96.3150 263.7974 15.08853309 18104,6917.84,95.437,540.509,538.901,0.0
54758.0,STARLINK-5464,PAYLOAD,2023-04-26 06:56:05,15.08822216,9.14e-05,53.2186,65.7637,95.2271,264.8826,-0.00027304,-4.628e-05,0.0,0 STARLINK-5464,1 54758U 22175A   23116.28895614 -.00004628  00000-0 -27304-3 0  9993,2 54758  53.2186  65.7637 0000914  95.2271 264.8826 15.08822216 21712,6917.935,95.439,540.432,539.167,0.0
54758.0,STARLINK-5464,PAYLOAD,2023-04-26 21:14:34,15.08826927,0.0001017,53.2195,63.0884,89.5757,270.5352,-0.00012026,-2.2e-05,0.0,0 STARLINK-5464,1 54758U 22175A   23116.88511666 -.00002200  00000-0 -12026-3 0  9990,2 54758  53.2195  63.0884 0001017  89.5757 270.5352 15.08826927 21808,6917.92,95.438,540.489,539.082,0.0
54758.0,STARLINK-5464,PAYLOAD,2023-04-27 03:36:06,15.08833544,0.0001026,53.2192,61.8995,94.8551,265.2558,-4.3256e-05,-9.76e-06,0.0,0 STARLINK-5464,1 54758U 22175A   23117.15007249 -.00000976  00000-0 -43256-4 0  9996,2 54758  53.2192  61.8995 0001026  94.8551 265.2558 15.08833544 18409,6917.9,95.438,540.475,539.055,0.0
54758.0,STARLINK-5464,PAYLOAD,2023-04-28 05:02:15,15.08855502,8.54e-05,53.2182,57.141,83.8964,276.2125,0.00068299,0.00010603,0.0,0 STARLINK-5464,1 54758U 22175A   23118.20990712  .00010603  00000-0  68299-3 0  9998,2 54758  53.2182  57.1410 0000854  83.8964 276.2125 15.08855502 18569,6917.833,95.437,540.289,539.107,0.0
54758.0,STARLINK-5464,PAYLOAD,2023-04-28 12:59:11,15.08854822,9.9e-05,53.2186,55.6552,89.9361,270.1745,0.00044371,6.784e-05,0.0,0 STARLINK-5464,1 54758U 22175A   23118.54110661  .00006784  00000-0  44371-3 0  9992,2 54758  53.2186  55.6552 0000990  89.9361 270.1745 15.08854822 22056,6917.835,95.437,540.385,539.015,0.0
54758.0,STARLINK-5464,PAYLOAD,2023-04-29 04:53:02,15.08856741,0.0001197,53.2186,52.6784,76.3906,283.7219,0.00017775,2.543e-05,0.0,0 STARLINK-5464,1 54758U 22175A   23119.20350187  .00002543  00000-0  17775-3 0  9992,2 54758  53.2186  52.6784 0001197  76.3906 283.7219 15.08856741 22154,6917.829,95.436,540.522,538.866,0.0
54758.0,STARLINK-5464,PAYLOAD,2023-04-29 19:11:30,15.08844857,0.0001134,53.2192,50.0049,72.5057,287.6059,-0.00016468,-2.908e-05,0.0,0 STARLINK-5464,1 54758U 22175A   23119.79966178 -.00002908  00000-0 -16468-3 0  9994,2 54758  53.2192  50.0049 0001134  72.5057 287.6059 15.08844857 18800,6917.866,95.437,540.515,538.946,0.0
54758.0,STARLINK-5464,PAYLOAD,2023-04-30 04:43:49,15.08852228,0.0001253,53.2193,48.2194,89.864,270.2496,-8.6643e-06,-4.26e-06,0.0,0 STARLINK-5464,1 54758U 22175A   23120.19709818 -.00000426  00000-0 -86643-5 0  9993,2 54758  53.2193  48.2194 0001253  89.8640 270.2496 15.08852228 18862,6917.843,95.437,540.575,538.841,0.0
54758.0,STARLINK-5464,PAYLOAD,2023-04-30 19:02:17,15.08841391,0.0001463,53.2194,45.5429,104.0385,256.077,3.7443e-05,3.08e-06,0.0,0 STARLINK-5464,1 54758U 22175A   23120.79326348  .00000308  00000-0  37443-4 0  9992,2 54758  53.2194  45.5429 0001463 104.0385 256.0770 15.08841391 18959,6917.876,95.437,540.753,538.729,0.0
54758.0,STARLINK-5464,PAYLOAD,2023-05-01 01:23:50,15.08845157,0.0001204,53.219,44.355,94.0937,266.0193,3.9523e-05,3.41e-06,0.0,0 STARLINK-5464,1 54758U 22175A   23121.05822179  .00000341  00000-0  39523-4 0  9993,2 54758  53.2190  44.3550 0001204  94.0937 266.0193 15.08845157 22433,6917.865,95.437,540.563,538.897,0.0
54758.0,STARLINK-5464,PAYLOAD,2023-05-01 22:03:51,15.0884305,0.0001466,53.2195,40.488,118.3859,241.7281,0.00010644,1.407e-05,0.0,0 STARLINK-5464,1 54758U 22175A   23121.91934153  .00001407  00000-0  10644-3 0  9990,2 54758  53.2195  40.4880 0001466 118.3859 241.7281 15.08843050 22566,6917.871,95.437,540.75,538.722,0.0
54758.0,STARLINK-5464,PAYLOAD,2023-05-01 23:39:14,15.08843573,0.0001445,53.2195,40.1907,117.187,242.927,0.0001088,1.444e-05,0.0,0 STARLINK-5464,1 54758U 22175A   23121.98558114  .00001444  00000-0  10880-3 0  9999,2 54758  53.2195  40.1907 0001445 117.1870 242.9270 15.08843573 19130,6917.869,95.437,540.734,538.735,0.0
54758.0,STARLINK-5464,PAYLOAD,2023-05-02 04:25:23,15.08849263,0.0001322,53.22,39.2983,111.6276,248.4858,0.00012454,1.695e-05,0.0,0 STARLINK-5464,1 54758U 22175A   23122.18429589  .00001695  00000-0  12454-3 0  9992,2 54758  53.2200  39.2983 0001322 111.6276 248.4858 15.08849263 22604,6917.852,95.437,540.632,538.803,0.0
54758.0,STARLINK-5464,PAYLOAD,2023-05-03 02:40:47,15.08844201,9.9e-05,53.2197,35.1382,88.6773,271.4332,0.00010193,1.335e-05,0.0,0 STARLINK-5464,1 54758U 22175A   23123.11166026  .00001335  00000-0  10193-3 0  9999,2 54758  53.2197  35.1382 0000990  88.6773 271.4332 15.08844201 19305,6917.868,95.437,540.417,539.048,0.0
54758.0,STARLINK-5464,PAYLOAD,2023-05-03 20:10:02,15.08838988,9.33e-05,53.2187,31.8679,107.453,252.6564,-3.8096e-05,-8.94e-06,0.0,0 STARLINK-5464,1 54758U 22175A   23123.84030814 -.00000894  00000-0 -38096-4 0  9998,2 54758  53.2187  31.8679 0000933 107.4530 252.6564 15.08838988 22851,6917.883,95.438,540.394,539.103,0.0
54758.0,STARLINK-5464,PAYLOAD,2023-05-04 10:28:30,15.0884667,8.64e-05,53.2187,29.192,82.0955,278.0135,-1.9709e-05,-6.01e-06,0.0,0 STARLINK-5464,1 54758U 22175A   23124.43646099 -.00000601  00000-0 -19709-4 0  9998,2 54758  53.2187  29.1920 0000864  82.0955 278.0135 15.08846670 19503,6917.86,95.437,540.323,539.127,0.0
54758.0,STARLINK-5464,PAYLOAD,2023-05-04 21:36:13,15.08834734,9.5e-05,53.2189,27.1102,86.5953,273.5148,-7.2865e-06,-4.04e-06,0.0,0 STARLINK-5464,1 54758U 22175A   23124.90015229 -.00000404  00000-0 -72865-5 0  9999,2 54758  53.2189  27.1102 0000950  86.5953 273.5148 15.08834734 23011,6917.896,95.438,540.419,539.104,0.0
54758.0,STARLINK-5464,PAYLOAD,2023-05-04 23:11:35,15.08838148,9.79e-05,53.2195,26.8152,103.2942,256.8159,-1.0222e-05,-4.5e-06,0.0,0 STARLINK-5464,1 54758U 22175A   23124.96638871 -.00000450  00000-0 -10222-4 0  9998,2 54758  53.2195  26.8152 0000979 103.2942 256.8159 15.08838148 19581,6917.886,95.438,540.428,539.074,0.0
54758.0,STARLINK-5464,PAYLOAD,2023-05-05 21:27:00,15.08837329,9.57e-05,53.2186,22.6505,79.6314,280.4786,2.0329e-05,3.6e-07,0.0,0 STARLINK-5464,1 54758U 22175A   23125.89375257  .00000036  00000-0  20329-4 0  9994,2 54758  53.2186  22.6505 0000957  79.6314 280.4786 15.08837329 23160,6917.889,95.438,540.416,539.092,0.0
54758.0,STARLINK-5464,PAYLOAD,2023-05-06 00:37:46,15.08841353,0.0001026,53.219,22.0538,87.213,272.898,5.4342e-05,5.77e-06,0.0,0 STARLINK-5464,1 54758U 22175A   23126.02622891  .00000577  00000-0  54342-4 0  9991,2 54758  53.2190  22.0538 0001026  87.2130 272.8980 15.08841353 19746,6917.876,95.437,540.451,539.031,0.0
54758.0,STARLINK-5464,PAYLOAD,2023-05-07 02:03:54,15.08860797,0.0001015,53.2186,17.2958,90.322,269.7888,0.00024961,3.689e-05,0.0,0 STARLINK-5464,1 54758U 22175A   23127.08605310  .00003689  00000-0  24961-3 0  9995,2 54758  53.2186  17.2958 0001015  90.3220 269.7888 15.08860797 19909,6917.817,95.436,540.384,538.98,0.0
54758.0,STARLINK-5464,PAYLOAD,2023-05-07 21:08:34,15.08833023,0.0001185,53.2182,13.7274,91.4697,268.6431,-4.4857e-05,-1.002e-05,0.0,0 STARLINK-5464,1 54758U 22175A   23127.88095486 -.00001002  00000-0 -44857-4 0  9996,2 54758  53.2182  13.7274 0001185  91.4697 268.6431 15.08833023 20024,6917.902,95.438,540.586,538.947,0.0
54758.0,STARLINK-5464,PAYLOAD,2023-05-08 22:34:44,15.08853769,0.0001255,53.2179,8.9706,88.4642,271.6494,0.0001885,2.714e-05,0.0,0 STARLINK-5464,1 54758U 22175A   23128.94078815  .00002714  00000-0  18850-3 0  9993,2 54758  53.2179   8.9706 0001255  88.4642 271.6494 15.08853769 23621,6917.838,95.437,540.571,538.835,0.0
54758.0,STARLINK-5464,PAYLOAD,2023-05-09 22:25:31,15.08846777,0.0001314,53.2179,4.5093,95.338,264.7763,0.00025582,3.787e-05,0.0,0 STARLINK-5464,1 54758U 22175A   23129.93439114  .00003787  00000-0  25582-3 0  9997,2 54758  53.2179   4.5093 0001314  95.3380 264.7763 15.08846777 23773,6917.86,95.437,540.634,538.816,0.0
54758.0,STARLINK-5464,PAYLOAD,2023-05-10 19:05:32,15.08844412,0.0001242,53.2175,0.6449,96.0155,264.0979,-3.1624e-05,-7.91e-06,0.0,0 STARLINK-5464,1 54758U 22175A   23130.79551105 -.00000791  00000-0 -31624-4 0  9997,2 54758  53.2175   0.6449 0001242  96.0155 264.0979 15.08844412 23900,6917.867,95.437,540.591,538.873,0.0
54758.0,STARLINK-5464,PAYLOAD,2023-05-10 22:16:17,15.08851225,0.000122,53.2163,0.0513,97.2157,262.8973,-6.4699e-05,-1.318e-05,0.0,0 STARLINK-5464,1 54758U 22175A   23130.92798496 -.00001318  00000-0 -64699-4 0  9992,2 54758  53.2163   0.0513 0001220  97.2157 262.8973 15.08851225 20484,6917.846,95.437,540.555,538.867,0.0
54758.0,STARLINK-5464,PAYLOAD,2023-05-11 22:07:07,15.0879554,0.0001364,53.2176,355.5922,98.6318,261.4828,0.0010095,0.00015795,0.0,0 STARLINK-5464,1 54758U 22175A   23131.92161805  .00015795  00000-0  10095-2 0  9992,2 54758  53.2176 355.5922 0001364  98.6318 261.4828 15.08795540 20631,6918.016,95.44,540.825,538.938,0.0
54758.0,STARLINK-5464,PAYLOAD,2023-05-12 18:47:06,15.0883467,0.0001192,53.2185,351.7256,111.0592,249.0527,0.00026396,3.915e-05,0.0,0 STARLINK-5464,1 54758U 22175A   23132.78271892  .00003915  00000-0  26396-3 0  9998,2 54758  53.2185 351.7256 0001192 111.0592 249.0527 15.08834670 24205,6917.897,95.438,540.586,538.937,0.0
